OBJECT_NAME,OBJECT_ID,EPOCH,MEAN_MOTION,ECCENTRICITY,INCLINATION,RA_OF_ASC_NODE,ARG_OF_PERICENTER,MEAN_ANOMALY,EPHEMERIS_TYPE,CLASSIFICATION_TYPE,NORAD_CAT_ID,ELEMENT_SET_NO,REV_AT_EPOCH,BSTAR,MEAN_MOTION_DOT,MEAN_MOTION_DDOT
H-2A R/B,2006-002B,2026-06-13T10:18:01.197792,15.18017674,.00495667,98.2553,319.9187,275.4318,84.1260,0,U,28932,999,10895,.32961303E-3,.684E-4,0
RESURS-DK 1,2006-021A,2026-06-13T14:21:05.435712,15.13204015,.00067784,69.9338,348.8437,294.4297,65.6162,0,U,29228,999,10203,.15258569E-3,.2608E-4,0
CZ-4B R/B,2006-046C,2026-06-13T15:02:37.560768,15.17759930,.00310896,97.5456,209.2446,295.7639,64.0387,0,U,29507,999,7459,.19520678E-3,.3919E-4,0
CZ-2C R/B,2007-010B,2026-06-13T12:54:00.292896,14.20275468,.00592491,98.4095,273.0670,16.7179,343.5934,0,U,31114,999,99332,.51352157E-4,.71E-6,0
COSMO-SKYMED 1,2007-023A,2026-06-13T15:49:37.129728,14.97083945,.00010463,97.8842,356.4861,94.6743,265.4598,0,U,31598,999,2926,.22940714E-3,.2585E-4,0
COSMOS 2428,2007-029A,2026-06-13T14:29:36.087360,14.12928732,.00071673,70.9370,2.0016,141.8231,218.3399,0,U,31792,999,97764,-.46565109E-4,-.135E-5,0
SL-16 R/B,2007-029B,2026-06-13T15:32:28.283712,14.14853506,.00022579,70.9766,330.6693,260.8133,172.4055,0,U,31793,999,97894,.14873845E-3,.239E-5,0
KORONAS-FOTON,2009-003A,2026-06-13T13:58:59.136096,15.45658458,.00112878,82.4282,176.0194,159.3755,200.7951,0,U,33504,999,96054,.26465293E-3,.12828E-3,0
CZ-2C R/B,2011-030B,2026-06-13T11:18:56.922624,14.81463000,.00533328,97.8654,119.9247,39.8691,75.8957,0,U,37731,999,80427,.15589217E-3,.1196E-4,0
H-2A R/B,2012-025E,2026-06-13T11:27:38.147904,14.95699296,.00438905,98.4822,139.3173,1.4716,358.6624,0,U,38341,999,76253,.31056442E-3,.3453E-4,0
SHIJIAN-16 (SJ-16),2013-057A,2026-06-13T14:52:40.929888,14.92599246,.0016827,74.9733,3.4408,239.2357,120.7175,0,U,39358,999,68581,.56147864E-4,.549E-5,0
SL-4 R/B,2014-021B,2026-06-13T10:25:33.143232,15.41884042,.00913767,51.6053,229.1564,92.2944,268.8507,0,U,39679,999,67103,.21837153E-3,.10504E-3,0
ALOS-2,2014-029A,2026-06-13T14:56:03.283872,14.79477530,.00016144,97.9216,261.8368,89.6191,270.5206,0,U,39766,999,65105,.21378995E-3,.1546E-4,0
YAOGAN-29,2015-069A,2026-06-13T16:04:02.091360,14.83082475,.00028053,98.0032,193.2968,58.7443,301.4044,0,U,41038,999,57010,.32407328E-4,.21E-5,0
ASTRO-H (HITOMI),2016-012A,2026-06-13T12:46:03.181728,15.10496033,.00097397,30.9989,97.7930,217.5160,142.4799,0,U,41337,999,56673,.14179782E-3,.2491E-4,0
HXMT (HUIYAN),2017-034A,2026-06-13T13:58:29.875008,15.18458559,.00302721,43.0128,203.1146,123.5004,236.8744,0,U,42758,999,49711,.19571589E-3,.3909E-4,0
SAOCOM 1A,2018-076A,2026-06-13T15:00:40.639968,14.82147862,.00016198,97.8883,351.4265,78.5785,281.5610,0,U,43641,999,41557,.10604143E-3,.792E-5,0
H-2A R/B,2018-084L,2026-06-13T15:08:49.048800,15.45028112,.00238202,98.8590,42.7447,52.4165,307.9238,0,U,43682,999,42057,.44947769E-3,.21353E-3,0
SAOCOM 1B,2020-059A,2026-06-13T15:45:39.460608,14.82166180,.00014588,97.8885,350.5517,83.1954,276.9425,0,U,46265,999,31296,-.9141776E-5,-.125E-5,0
CSS (TIANHE),2021-035A,2026-06-13T12:31:08.880384,15.60655045,.00078789,41.4694,344.3068,46.9708,313.1790,0,U,48274,999,29259,.25354343E-3,.2137E-3,0
COSMOS 2550,2021-056A,2026-06-13T07:22:26.327424,15.33827707,.0008385,67.1405,111.6422,268.1180,91.9014,0,U,48865,999,27812,.12132E-5,-.152E-5,0
CZ-2C R/B,2022-058K,2026-06-13T12:44:49.895520,15.61605462,.00327031,50.1836,182.5390,252.8586,106.8805,0,U,52794,999,22507,.39469312E-3,.35189E-3,0
CZ-2C R/B,2022-132E,2026-06-13T14:04:04.390752,15.71113849,.0016488,97.2895,171.4506,95.2167,265.0978,0,U,54039,999,20538,.43279051E-3,.54947E-3,0
GSLV R/B,2022-138AN,2026-06-13T10:36:17.727840,14.97239757,.00223076,87.3796,134.2417,156.3727,203.8535,0,U,54149,999,19825,.20540764E-3,.2417E-4,0
XRISM,2023-137A,2026-06-13T07:07:33.618432,15.12433525,.00079964,31.0031,24.8000,285.2388,74.7366,0,U,57800,999,15227,.26181459E-3,.4764E-4,0
ACS3,2024-077B,2026-06-13T14:47:35.349504,13.93848516,.00660234,97.1684,84.2015,66.9503,293.8607,0,U,59588,999,10754,.5553071E-2,.7433E-4,0
CZ-8A R/B,2025-231K,2026-06-13T10:02:46.577760,14.30153966,.01164657,50.0053,55.3493,210.7365,148.6694,0,U,66004,999,3440,.39491096E-4,-.53E-6,0
SZ-21 MODULE,2025-246C,2026-06-13T03:51:39.949056,15.76064836,.00068369,41.4732,332.3964,324.6850,35.3541,0,U,66515,999,3310,.28959531E-3,.46494E-3,0
