H-2A R/B                
1 28932U 06002B   26164.42918053  .00006840  00000+0  32961-3 0  9994
2 28932  98.2553 319.9187 0049566 275.4318  84.1260 15.18017674108950
RESURS-DK 1             
1 29228U 06021A   26164.59797958  .00002608  00000+0  15259-3 0  9990
2 29228  69.9338 348.8437 0006778 294.4297  65.6162 15.13204015102039
CZ-4B R/B               
1 29507U 06046C   26164.62682362  .00003919  00000+0  19521-3 0  9995
2 29507  97.5456 209.2446 0031089 295.7639  64.0387 15.17759930 74590
CZ-2C R/B               
1 31114U 07010B   26164.53750339  .00000071  00000+0  51352-4 0  9999
2 31114  98.4095 273.0670 0059249  16.7179 343.5934 14.20275468993328
COSMO-SKYMED 1          
1 31598U 07023A   26164.65945752  .00002585  00000+0  22941-3 0  9990
2 31598  97.8842 356.4861 0001046  94.6743 265.4598 14.97083945 29261
COSMOS 2428             
1 31792U 07029A   26164.60388990 -.00000135  00000+0 -46565-4 0  9992
2 31792  70.9370   2.0016 0007167 141.8231 218.3399 14.12928732977647
SL-16 R/B               
1 31793U 07029B   26164.64754958  .00000239  00000+0  14874-3 0  9998
2 31793  70.9766 330.6693 0002257 260.8133 172.4055 14.14853506978947
KORONAS-FOTON           
1 33504U 09003A   26164.58262889  .00012828  00000+0  26465-3 0  9990
2 33504  82.4282 176.0194 0011287 159.3755 200.7951 15.45658458960544
CZ-2C R/B               
1 37731U 11030B   26164.47149216  .00001196  00000+0  15589-3 0  9996
2 37731  97.8654 119.9247 0053332  39.8691  75.8957 14.81463000804276
H-2A R/B                
1 38341U 12025E   26164.47752486  .00003453  00000+0  31056-3 0  9993
2 38341  98.4822 139.3173 0043890   1.4716 358.6624 14.95699296762531
SHIJIAN-16 (SJ-16)      
1 39358U 13057A   26164.61991817  .00000549  00000+0  56148-4 0  9990
2 39358  74.9733   3.4408 0016827 239.2357 120.7175 14.92599246685819
SL-4 R/B                
1 39679U 14021B   26164.43441138  .00010504  00000+0  21837-3 0  9992
2 39679  51.6053 229.1564 0091376  92.2944 268.8507 15.41884042671031
ALOS-2                  
1 39766U 14029A   26164.62226023  .00001546  00000+0  21379-3 0  9999
2 39766  97.9216 261.8368 0001614  89.6191 270.5206 14.79477530651053
YAOGAN-29               
1 41038U 15069A   26164.66946865  .00000210  00000+0  32407-4 0  9998
2 41038  98.0032 193.2968 0002805  58.7443 301.4044 14.83082475570105
ASTRO-H (HITOMI)        
1 41337U 16012A   26164.53198127  .00002491  00000+0  14180-3 0  9995
2 41337  30.9989  97.7930 0009739 217.5160 142.4799 15.10496033566738
HXMT (HUIYAN)           
1 42758U 17034A   26164.58229022  .00003909  00000+0  19572-3 0  9997
2 42758  43.0128 203.1146 0030272 123.5004 236.8744 15.18458559497119
SAOCOM 1A               
1 43641U 18076A   26164.62547037  .00000792  00000+0  10604-3 0  9994
2 43641  97.8883 351.4265 0001619  78.5785 281.5610 14.82147862415574
H-2A R/B                
1 43682U 18084L   26164.63112325  .00021353  00000+0  44948-3 0  9991
2 43682  98.8590  42.7447 0023820  52.4165 307.9238 15.45028112420579
SAOCOM 1B               
1 46265U 20059A   26164.65670672 -.00000125  00000+0 -91418-5 0  9994
2 46265  97.8885 350.5517 0001458  83.1954 276.9425 14.82166180312967
CSS (TIANHE)            
1 48274U 21035A   26164.52163056  .00021370  00000+0  25354-3 0  9997
2 48274  41.4694 344.3068 0007878  46.9708 313.1790 15.60655045292595
COSMOS 2550             
1 48865U 21056A   26164.30724916 -.00000152  00000+0  12132-5 0  9998
2 48865  67.1405 111.6422 0008385 268.1180  91.9014 15.33827707278120
CZ-2C R/B               
1 52794U 22058K   26164.53113305  .00035189  00000+0  39469-3 0  9993
2 52794  50.1836 182.5390 0032703 252.8586 106.8805 15.61605462225071
CZ-2C R/B               
1 54039U 22132E   26164.58616193  .00054947  00000+0  43279-3 0  9995
2 54039  97.2895 171.4506 0016488  95.2167 265.0978 15.71113849205389
GSLV R/B                
1 54149U 22138AN  26164.44187185  .00002417  00000+0  20541-3 0  9994
2 54149  87.3796 134.2417 0022307 156.3727 203.8535 14.97239757198257
XRISM                   
1 57800U 23137A   26164.29691688  .00004764  00000+0  26181-3 0  9995
2 57800  31.0031  24.8000 0007996 285.2388  74.7366 15.12433525152272
ACS3                    
1 59588U 24077B   26164.61638136  .00007433  00000+0  55531-2 0  9995
2 59588  97.1684  84.2015 0066023  66.9503 293.8607 13.93848516107548
CZ-8A R/B               
1 66004U 25231K   26164.41859465 -.00000053  00000+0  39491-4 0  9998
2 66004  50.0053  55.3493 0116465 210.7365 148.6694 14.30153966 34404
SZ-21 MODULE            
1 66515U 25246C   26164.16087904  .00046494  00000+0  28960-3 0  9990
2 66515  41.4732 332.3964 0006836 324.6850  35.3541 15.76064836 33101
